{
  "type": "FeatureCollection",
  "features": [
    {
      "type": "Feature",
      "properties": {
        "norad_id": 24946,
        "name": "IRIDIUM 33",
        "group": "iridium-33-debris",
        "lat": -44.5682883930361,
        "lon": -110.9944828543942,
        "alt_km": 777.9219523618094,
        "timestamp": "2025-12-19T08:58:49.721599+00:00",
        "meta_object_name": "IRIDIUM 33",
        "meta_object_id": "1997-051C",
        "meta_epoch": "2025-12-18T15:12:08.915328",
        "meta_mean_motion": 14.35041483,
        "meta_eccentricity": 0.0007737,
        "meta_inclination": 86.3868,
        "meta_ra_of_asc_node": 65.7479,
        "meta_arg_of_pericenter": 180.2662,
        "meta_mean_anomaly": 179.8531,
        "meta_ephemeris_type": 0,
        "meta_classification_type": "U",
        "meta_norad_cat_id": 24946,
        "meta_element_set_no": 999,
        "meta_rev_at_epoch": 47919,
        "meta_bstar": 9.2049162e-05,
        "meta_mean_motion_dot": 2.82e-06,
        "meta_mean_motion_ddot": 0,
        "tle_line1": "1 24946U 97051C   25352.63343652  .00000282  00000+0  92049-4 0  9995",
        "tle_line2": "2 24946  86.3868  65.7479 0007737 180.2662 179.8531 14.35041483479190"
      },
      "geometry": {
        "type": "Point",
        "coordinates": [
          -110.9944828543942,
          -44.5682883930361
        ]
      }
    },
    {
      "type": "Feature",
      "properties": {
        "norad_id": 33773,
        "name": "IRIDIUM 33 DEB",
        "group": "iridium-33-debris",
        "lat": 17.38781410791511,
        "lon": 58.90761358340476,
        "alt_km": 751.308316481518,
        "timestamp": "2025-12-19T08:58:49.721644+00:00",
        "meta_object_name": "IRIDIUM 33 DEB",
        "meta_object_id": "1997-051L",
        "meta_epoch": "2025-12-18T16:15:37.298592",
        "meta_mean_motion": 14.43269287,
        "meta_eccentricity": 0.00129715,
        "meta_inclination": 86.4004,
        "meta_ra_of_asc_node": 58.0733,
        "meta_arg_of_pericenter": 129.1205,
        "meta_mean_anomaly": 231.1151,
        "meta_ephemeris_type": 0,
        "meta_classification_type": "U",
        "meta_norad_cat_id": 33773,
        "meta_element_set_no": 999,
        "meta_rev_at_epoch": 88433,
        "meta_bstar": 0.00022543897,
        "meta_mean_motion_dot": 7.79e-06,
        "meta_mean_motion_ddot": 0,
        "tle_line1": "1 33773U 97051L   25352.67751503  .00000779  00000+0  22544-3 0  9998",
        "tle_line2": "2 33773  86.4004  58.0733 0012971 129.1205 231.1151 14.43269287884339"
      },
      "geometry": {
        "type": "Point",
        "coordinates": [
          58.90761358340476,
          17.38781410791511
        ]
      }
    },
    {
      "type": "Feature",
      "properties": {
        "norad_id": 33775,
        "name": "IRIDIUM 33 DEB",
        "group": "iridium-33-debris",
        "lat": 58.12319017710387,
        "lon": 52.59129865348752,
        "alt_km": 745.5232599495203,
        "timestamp": "2025-12-19T08:58:49.721661+00:00",
        "meta_object_name": "IRIDIUM 33 DEB",
        "meta_object_id": "1997-051N",
        "meta_epoch": "2025-12-18T15:09:18.283968",
        "meta_mean_motion": 14.41480669,
        "meta_eccentricity": 0.00148625,
        "meta_inclination": 86.3631,
        "meta_ra_of_asc_node": 47.0382,
        "meta_arg_of_pericenter": 136.8807,
        "meta_mean_anomaly": 29.8565,
        "meta_ephemeris_type": 0,
        "meta_classification_type": "U",
        "meta_norad_cat_id": 33775,
        "meta_element_set_no": 999,
        "meta_rev_at_epoch": 88225,
        "meta_bstar": 0.00024003689,
        "meta_mean_motion_dot": 8e-06,
        "meta_mean_motion_ddot": 0,
        "tle_line1": "1 33775U 97051N   25352.63146162  .00000800  00000+0  24004-3 0  9993",
        "tle_line2": "2 33775  86.3631  47.0382 0014862 136.8807  29.8565 14.41480669882255"
      },
      "geometry": {
        "type": "Point",
        "coordinates": [
          52.59129865348752,
          58.12319017710387
        ]
      }
    },
    {
      "type": "Feature",
      "properties": {
        "norad_id": 33776,
        "name": "IRIDIUM 33 DEB",
        "group": "iridium-33-debris",
        "lat": -31.2235975016756,
        "lon": -99.82514220866007,
        "alt_km": 762.4475047036067,
        "timestamp": "2025-12-19T08:58:49.721676+00:00",
        "meta_object_name": "IRIDIUM 33 DEB",
        "meta_object_id": "1997-051P",
        "meta_epoch": "2025-12-18T19:11:32.813376",
        "meta_mean_motion": 14.38245521,
        "meta_eccentricity": 0.00150531,
        "meta_inclination": 86.4036,
        "meta_ra_of_asc_node": 78.2312,
        "meta_arg_of_pericenter": 170.7617,
        "meta_mean_anomaly": 307.6071,
        "meta_ephemeris_type": 0,
        "meta_classification_type": "U",
        "meta_norad_cat_id": 33776,
        "meta_element_set_no": 999,
        "meta_rev_at_epoch": 88169,
        "meta_bstar": 0.0002140719,
        "meta_mean_motion_dot": 6.71e-06,
        "meta_mean_motion_ddot": 0,
        "tle_line1": "1 33776U 97051P   25352.79968534  .00000671  00000+0  21407-3 0  9996",
        "tle_line2": "2 33776  86.4036  78.2312 0015053 170.7617 307.6071 14.38245521881692"
      },
      "geometry": {
        "type": "Point",
        "coordinates": [
          -99.82514220866007,
          -31.2235975016756
        ]
      }
    },
    {
      "type": "Feature",
      "properties": {
        "norad_id": 33777,
        "name": "IRIDIUM 33 DEB",
        "group": "iridium-33-debris",
        "lat": 53.44874439712082,
        "lon": 37.21921969288325,
        "alt_km": 706.1659752027563,
        "timestamp": "2025-12-19T08:58:49.721689+00:00",
        "meta_object_name": "IRIDIUM 33 DEB",
        "meta_object_id": "1997-051Q",
        "meta_epoch": "2025-12-18T21:11:10.273056",
        "meta_mean_motion": 14.55655728,
        "meta_eccentricity": 0.00056191,
        "meta_inclination": 86.3779,
        "meta_ra_of_asc_node": 32.5314,
        "meta_arg_of_pericenter": 221.6696,
        "meta_mean_anomaly": 138.4084,
        "meta_ephemeris_type": 0,
        "meta_classification_type": "U",
        "meta_norad_cat_id": 33777,
        "meta_element_set_no": 999,
        "meta_rev_at_epoch": 88623,
        "meta_bstar": 0.00061959884,
        "meta_mean_motion_dot": 2.726e-05,
        "meta_mean_motion_ddot": 0,
        "tle_line1": "1 33777U 97051Q   25352.88275779  .00002726  00000+0  61960-3 0  9990",
        "tle_line2": "2 33777  86.3779  32.5314 0005619 221.6696 138.4084 14.55655728886233"
      },
      "geometry": {
        "type": "Point",
        "coordinates": [
          37.21921969288325,
          53.44874439712082
        ]
      }
    },
    {
      "type": "Feature",
      "properties": {
        "norad_id": 33850,
        "name": "IRIDIUM 33 DEB",
        "group": "iridium-33-debris",
        "lat": 55.22668052553354,
        "lon": 32.61444912311212,
        "alt_km": 745.4637277769161,
        "timestamp": "2025-12-19T08:58:49.721702+00:00",
        "meta_object_name": "IRIDIUM 33 DEB",
        "meta_object_id": "1997-051T",
        "meta_epoch": "2025-12-18T14:59:17.983680",
        "meta_mean_motion": 14.42158968,
        "meta_eccentricity": 0.00127915,
        "meta_inclination": 86.3413,
        "meta_ra_of_asc_node": 27.6492,
        "meta_arg_of_pericenter": 143.3422,
        "meta_mean_anomaly": 342.6058,
        "meta_ephemeris_type": 0,
        "meta_classification_type": "U",
        "meta_norad_cat_id": 33850,
        "meta_element_set_no": 999,
        "meta_rev_at_epoch": 88237,
        "meta_bstar": 0.00026637841,
        "meta_mean_motion_dot": 8.97e-06,
        "meta_mean_motion_ddot": 0,
        "tle_line1": "1 33850U 97051T   25352.62451370  .00000897  00000+0  26638-3 0  9997",
        "tle_line2": "2 33850  86.3413  27.6492 0012791 143.3422 342.6058 14.42158968882379"
      },
      "geometry": {
        "type": "Point",
        "coordinates": [
          32.61444912311212,
          55.22668052553354
        ]
      }
    },
    {
      "type": "Feature",
      "properties": {
        "norad_id": 33853,
        "name": "IRIDIUM 33 DEB",
        "group": "iridium-33-debris",
        "lat": 50.648792531981634,
        "lon": 162.0067035447882,
        "alt_km": 879.2922978695069,
        "timestamp": "2025-12-19T08:58:49.721715+00:00",
        "meta_object_name": "IRIDIUM 33 DEB",
        "meta_object_id": "1997-051W",
        "meta_epoch": "2025-12-18T10:46:35.462784",
        "meta_mean_motion": 13.9909411,
        "meta_eccentricity": 0.02071281,
        "meta_inclination": 85.9998,
        "meta_ra_of_asc_node": 347.3075,
        "meta_arg_of_pericenter": 218.1719,
        "meta_mean_anomaly": 296.3218,
        "meta_ephemeris_type": 0,
        "meta_classification_type": "U",
        "meta_norad_cat_id": 33853,
        "meta_element_set_no": 999,
        "meta_rev_at_epoch": 85425,
        "meta_bstar": 0.0013854201,
        "meta_mean_motion_dot": 2.426e-05,
        "meta_mean_motion_ddot": 0,
        "tle_line1": "1 33853U 97051W   25352.44902156  .00002426  00000+0  13854-2 0  9998",
        "tle_line2": "2 33853  85.9998 347.3075 0207128 218.1719 296.3218 13.99094110854252"
      },
      "geometry": {
        "type": "Point",
        "coordinates": [
          162.0067035447882,
          50.648792531981634
        ]
      }
    }
  ]
}